{
  "type": "FeatureCollection",
  "features": [
    {
      "type": "Feature",
      "properties": {
        "norad_id": 66484,
        "name": "STARLINK-35371",
        "group": "last-30-days",
        "lat": 31.42037941005718,
        "lon": -121.4327857306096,
        "alt_km": 410.9204199286678,
        "timestamp": "2025-12-07T20:38:12.866540+00:00",
        "meta_object_name": "STARLINK-35371",
        "meta_object_id": "2025-262AE",
        "meta_epoch": "2025-12-07T06:00:04.999968",
        "meta_mean_motion": 15.50587552,
        "meta_eccentricity": 0.0001543,
        "meta_inclination": 43.0005,
        "meta_ra_of_asc_node": 103.0968,
        "meta_arg_of_pericenter": 259.9284,
        "meta_mean_anomaly": 62.0955,
        "meta_ephemeris_type": 0,
        "meta_classification_type": "U",
        "meta_norad_cat_id": 66484,
        "meta_element_set_no": 999,
        "meta_rev_at_epoch": 475,
        "meta_bstar": -0.00088055094,
        "meta_mean_motion_dot": -0.00051675,
        "meta_mean_motion_ddot": 0,
        "tle_line1": "1 66484U 25262AE  25341.25005787 -.00051675  00000+0 -88055-3 0  9998",
        "tle_line2": "2 66484  43.0005 103.0968 0001543 259.9284  62.0955 15.50587552  4757"
      },
      "geometry": {
        "type": "Point",
        "coordinates": [
          -121.4327857306096,
          31.42037941005718
        ]
      }
    },
    {
      "type": "Feature",
      "properties": {
        "norad_id": 66485,
        "name": "STARLINK-34774",
        "group": "last-30-days",
        "lat": 5.711347308372295,
        "lon": 159.8725059973086,
        "alt_km": 409.209681237071,
        "timestamp": "2025-12-07T20:38:12.866550+00:00",
        "meta_object_name": "STARLINK-34774",
        "meta_object_id": "2025-263A",
        "meta_epoch": "2025-12-07T06:00:04.999968",
        "meta_mean_motion": 15.55001839,
        "meta_eccentricity": 0.00012745,
        "meta_inclination": 43.0001,
        "meta_ra_of_asc_node": 157.2951,
        "meta_arg_of_pericenter": 266.3758,
        "meta_mean_anomaly": 287.2725,
        "meta_ephemeris_type": 0,
        "meta_classification_type": "U",
        "meta_norad_cat_id": 66485,
        "meta_element_set_no": 999,
        "meta_rev_at_epoch": 475,
        "meta_bstar": -0.03403132,
        "meta_mean_motion_dot": -0.02085701,
        "meta_mean_motion_ddot": 0,
        "tle_line1": "1 66485U 25263A   25341.25005787 -.02085701  00000+0 -34031-1 0  9992",
        "tle_line2": "2 66485  43.0001 157.2951 0001274 266.3758 287.2725 15.55001839  4756"
      },
      "geometry": {
        "type": "Point",
        "coordinates": [
          159.8725059973086,
          5.711347308372295
        ]
      }
    },
    {
      "type": "Feature",
      "properties": {
        "norad_id": 66486,
        "name": "STARLINK-34844",
        "group": "last-30-days",
        "lat": 7.011135041639224,
        "lon": 161.28929735004854,
        "alt_km": 408.92687072479293,
        "timestamp": "2025-12-07T20:38:12.866560+00:00",
        "meta_object_name": "STARLINK-34844",
        "meta_object_id": "2025-263B",
        "meta_epoch": "2025-12-07T06:00:04.999968",
        "meta_mean_motion": 15.54990101,
        "meta_eccentricity": 0.00012715,
        "meta_inclination": 43.0002,
        "meta_ra_of_asc_node": 157.2894,
        "meta_arg_of_pericenter": 270.9634,
        "meta_mean_anomaly": 284.6102,
        "meta_ephemeris_type": 0,
        "meta_classification_type": "U",
        "meta_norad_cat_id": 66486,
        "meta_element_set_no": 999,
        "meta_rev_at_epoch": 470,
        "meta_bstar": -0.033810534,
        "meta_mean_motion_dot": -0.02072837,
        "meta_mean_motion_ddot": 0,
        "tle_line1": "1 66486U 25263B   25341.25005787 -.02072837  00000+0 -33811-1 0  9994",
        "tle_line2": "2 66486  43.0002 157.2894 0001271 270.9634 284.6102 15.54990101  4708"
      },
      "geometry": {
        "type": "Point",
        "coordinates": [
          161.28929735004854,
          7.011135041639224
        ]
      }
    },
    {
      "type": "Feature",
      "properties": {
        "norad_id": 66487,
        "name": "STARLINK-34733",
        "group": "last-30-days",
        "lat": 8.303748924616821,
        "lon": 162.7126052638324,
        "alt_km": 408.82366869678117,
        "timestamp": "2025-12-07T20:38:12.866570+00:00",
        "meta_object_name": "STARLINK-34733",
        "meta_object_id": "2025-263C",
        "meta_epoch": "2025-12-07T06:00:04.999968",
        "meta_mean_motion": 15.55004931,
        "meta_eccentricity": 0.00012752,
        "meta_inclination": 43.0003,
        "meta_ra_of_asc_node": 157.2855,
        "meta_arg_of_pericenter": 269.5161,
        "meta_mean_anomaly": 287.9618,
        "meta_ephemeris_type": 0,
        "meta_classification_type": "U",
        "meta_norad_cat_id": 66487,
        "meta_element_set_no": 999,
        "meta_rev_at_epoch": 475,
        "meta_bstar": -0.034041822,
        "meta_mean_motion_dot": -0.02086487,
        "meta_mean_motion_ddot": 0,
        "tle_line1": "1 66487U 25263C   25341.25005787 -.02086487  00000+0 -34042-1 0  9998",
        "tle_line2": "2 66487  43.0003 157.2855 0001275 269.5161 287.9618 15.55004931  4751"
      },
      "geometry": {
        "type": "Point",
        "coordinates": [
          162.7126052638324,
          8.303748924616821
        ]
      }
    },
    {
      "type": "Feature",
      "properties": {
        "norad_id": 66488,
        "name": "STARLINK-35515",
        "group": "last-30-days",
        "lat": 9.591654202414212,
        "lon": 164.14429965024303,
        "alt_km": 408.7676346353701,
        "timestamp": "2025-12-07T20:38:12.866580+00:00",
        "meta_object_name": "STARLINK-35515",
        "meta_object_id": "2025-263D",
        "meta_epoch": "2025-12-07T06:00:04.999968",
        "meta_mean_motion": 15.55003956,
        "meta_eccentricity": 0.00012468,
        "meta_inclination": 43.0004,
        "meta_ra_of_asc_node": 157.2801,
        "meta_arg_of_pericenter": 265.5014,
        "meta_mean_anomaly": 293.8957,
        "meta_ephemeris_type": 0,
        "meta_classification_type": "U",
        "meta_norad_cat_id": 66488,
        "meta_element_set_no": 999,
        "meta_rev_at_epoch": 475,
        "meta_bstar": -0.034048301,
        "meta_mean_motion_dot": -0.02086755,
        "meta_mean_motion_ddot": 0,
        "tle_line1": "1 66488U 25263D   25341.25005787 -.02086755  00000+0 -34048-1 0  9993",
        "tle_line2": "2 66488  43.0004 157.2801 0001246 265.5014 293.8957 15.55003956  4753"
      },
      "geometry": {
        "type": "Point",
        "coordinates": [
          164.14429965024303,
          9.591654202414212
        ]
      }
    },
    {
      "type": "Feature",
      "properties": {
        "norad_id": 66489,
        "name": "STARLINK-35696",
        "group": "last-30-days",
        "lat": 10.87251603798983,
        "lon": 165.5860598419984,
        "alt_km": 408.539303211327,
        "timestamp": "2025-12-07T20:38:12.866592+00:00",
        "meta_object_name": "STARLINK-35696",
        "meta_object_id": "2025-263E",
        "meta_epoch": "2025-12-07T06:00:04.999968",
        "meta_mean_motion": 15.55010537,
        "meta_eccentricity": 0.00015564,
        "meta_inclination": 42.9998,
        "meta_ra_of_asc_node": 157.2748,
        "meta_arg_of_pericenter": 271.7717,
        "meta_mean_anomaly": 289.5413,
        "meta_ephemeris_type": 0,
        "meta_classification_type": "U",
        "meta_norad_cat_id": 66489,
        "meta_element_set_no": 999,
        "meta_rev_at_epoch": 475,
        "meta_bstar": -0.03427263,
        "meta_mean_motion_dot": -0.02099647,
        "meta_mean_motion_ddot": 0,
        "tle_line1": "1 66489U 25263E   25341.25005787 -.02099647  00000+0 -34273-1 0  9998",
        "tle_line2": "2 66489  42.9998 157.2748 0001556 271.7717 289.5413 15.55010537  4759"
      },
      "geometry": {
        "type": "Point",
        "coordinates": [
          165.5860598419984,
          10.87251603798983
        ]
      }
    },
    {
      "type": "Feature",
      "properties": {
        "norad_id": 66490,
        "name": "STARLINK-35693",
        "group": "last-30-days",
        "lat": 12.151397897668428,
        "lon": 167.04633185960415,
        "alt_km": 408.48886221350585,
        "timestamp": "2025-12-07T20:38:12.866604+00:00",
        "meta_object_name": "STARLINK-35693",
        "meta_object_id": "2025-263F",
        "meta_epoch": "2025-12-07T06:00:04.999968",
        "meta_mean_motion": 15.5500024,
        "meta_eccentricity": 0.00012633,
        "meta_inclination": 43.0003,
        "meta_ra_of_asc_node": 157.2704,
        "meta_arg_of_pericenter": 263.977,
        "meta_mean_anomaly": 299.2579,
        "meta_ephemeris_type": 0,
        "meta_classification_type": "U",
        "meta_norad_cat_id": 66490,
        "meta_element_set_no": 999,
        "meta_rev_at_epoch": 475,
        "meta_bstar": -0.033978764,
        "meta_mean_motion_dot": -0.02082715,
        "meta_mean_motion_ddot": 0,
        "tle_line1": "1 66490U 25263F   25341.25005787 -.02082715  00000+0 -33979-1 0  9990",
        "tle_line2": "2 66490  43.0003 157.2704 0001263 263.9770 299.2579 15.55000240  4750"
      },
      "geometry": {
        "type": "Point",
        "coordinates": [
          167.04633185960415,
          12.151397897668428
        ]
      }
    }
  ]
}